start=new Date('2022-04-21T00:00:00.000Z').valueOf();
sats=[{"ELEMENT_SET_NO":"999","TIME_SYSTEM":"UTC","EPOCH":"2022-04-20T15:32:22.983936","MEAN_MOTION_DDOT":"0.0000000000000","MEAN_ELEMENT_THEORY":"SGP4","CLASSIFICATION_TYPE":"U","COUNTRY_CODE":"US","PERIAPSIS":"308.905","TLE_LINE2":"2 45410  53.0453 244.8853 0003376 333.0557  27.0291 15.86835388117954","OBJECT_NAME":"STARLINK-1285","OBJECT_TYPE":"PAYLOAD","CENTER_NAME":"EARTH","LAUNCH_DATE":"2020-03-18","MEAN_MOTION":"15.86835388","REF_FRAME":"TEME","APOAPSIS":"313.422","DECAY_DATE":null,"TLE_LINE1":"1 45410U 20019BC  22110.64748824  .00171512  00000-0  64447-3 0  9990","ECCENTRICITY":"0.00033760","BSTAR":"0.00064447000000","EPHEMERIS_TYPE":"0","PERIOD":"90.747","FILE":"3409979","NORAD_CAT_ID":"45410","ARG_OF_PERICENTER":"333.0557","REV_AT_EPOCH":"11795","INCLINATION":"53.0453","MEAN_ANOMALY":"27.0291","RA_OF_ASC_NODE":"244.8853","OBJECT_ID":"2020-019BC","SEMIMAJOR_AXIS":"6689.299","SITE":"AFETR","MEAN_MOTION_DOT":"0.00171512","RCS_SIZE":"LARGE","GP_ID":"201711490"},{"EPHEMERIS_TYPE":"0","NORAD_CAT_ID":"45411","FILE":"3409639","PERIOD":"95.591","ECCENTRICITY":"0.00016110","BSTAR":"0.00015375000000","RCS_SIZE":"LARGE","SITE":"AFETR","MEAN_MOTION_DOT":"0.00002010","OBJECT_ID":"2020-019BD","SEMIMAJOR_AXIS":"6925.310","GP_ID":"201678848","REV_AT_EPOCH":"11593","ARG_OF_PERICENTER":"69.6733","RA_OF_ASC_NODE":"28.9969","MEAN_ANOMALY":"290.4429","INCLINATION":"53.0557","MEAN_ELEMENT_THEORY":"SGP4","TLE_LINE2":"2 45411  53.0557  28.9969 0001611  69.6733 290.4429 15.06412647115933","OBJECT_NAME":"STARLINK-1293","PERIAPSIS":"546.059","COUNTRY_CODE":"US","CLASSIFICATION_TYPE":"U","TIME_SYSTEM":"UTC","EPOCH":"2022-04-20T04:30:42.228864","ELEMENT_SET_NO":"999","MEAN_MOTION_DDOT":"0.0000000000000","DECAY_DATE":null,"APOAPSIS":"548.290","REF_FRAME":"TEME","TLE_LINE1":"1 45411U 20019BD  22110.18798876  .00002010  00000-0  15375-3 0  9994","LAUNCH_DATE":"2020-03-18","CENTER_NAME":"EARTH","OBJECT_TYPE":"PAYLOAD","MEAN_MOTION":"15.06412647"},{"BSTAR":"0.00001968100000","ECCENTRICITY":"0.00014760","FILE":"3409639","PERIOD":"95.592","NORAD_CAT_ID":"45412","EPHEMERIS_TYPE":"0","INCLINATION":"53.0546","MEAN_ANOMALY":"296.3038","RA_OF_ASC_NODE":"27.6726","ARG_OF_PERICENTER":"63.8102","REV_AT_EPOCH":"11595","GP_ID":"201679098","SEMIMAJOR_AXIS":"6925.333","OBJECT_ID":"2020-019BE","SITE":"AFETR","RCS_SIZE":"LARGE","MEAN_MOTION_DOT":"0.00000012","MEAN_MOTION_DDOT":"0.0000000000000","ELEMENT_SET_NO":"999","EPOCH":"2022-04-20T11:40:37.249536","TIME_SYSTEM":"UTC","COUNTRY_CODE":"US","CLASSIFICATION_TYPE":"U","PERIAPSIS":"546.176","TLE_LINE2":"2 45412  53.0546  27.6726 0001476  63.8102 296.3038 15.06405081115951","OBJECT_NAME":"STARLINK-1296","MEAN_ELEMENT_THEORY":"SGP4","MEAN_MOTION":"15.06405081","OBJECT_TYPE":"PAYLOAD","CENTER_NAME":"EARTH","LAUNCH_DATE":"2020-03-18","TLE_LINE1":"1 45412U 20019BE  22110.48654224  .00000012  00000-0  19681-4 0  9991","REF_FRAME":"TEME","APOAPSIS":"548.220","DECAY_DATE":null},{"MEAN_MOTION":"15.06412849","OBJECT_TYPE":"PAYLOAD","CENTER_NAME":"EARTH","LAUNCH_DATE":"2020-03-18","TLE_LINE1":"1 45413U 20019BF  22110.18430462  .00002604  00000-0  19356-3 0  9992","REF_FRAME":"TEME","APOAPSIS":"548.309","DECAY_DATE":null,"MEAN_MOTION_DDOT":"0.0000000000000","ELEMENT_SET_NO":"999","TIME_SYSTEM":"UTC","EPOCH":"2022-04-20T04:25:23.919168","COUNTRY_CODE":"US","PERIAPSIS":"546.040","CLASSIFICATION_TYPE":"U","TLE_LINE2":"2 45413  53.0549  29.0209 0001638  75.2532 284.8638 15.06412849116006","OBJECT_NAME":"STARLINK-1298","MEAN_ELEMENT_THEORY":"SGP4","INCLINATION":"53.0549","RA_OF_ASC_NODE":"29.0209","MEAN_ANOMALY":"284.8638","ARG_OF_PERICENTER":"75.2532","REV_AT_EPOCH":"11600","GP_ID":"201679350","SEMIMAJOR_AXIS":"6925.309","OBJECT_ID":"2020-019BF","SITE":"AFETR","RCS_SIZE":"LARGE","MEAN_MOTION_DOT":"0.00002604","BSTAR":"0.00019356000000","ECCENTRICITY":"0.00016380","PERIOD":"95.591","FILE":"3409639","NORAD_CAT_ID":"45413","EPHEMERIS_TYPE":"0"},{"COUNTRY_CODE":"US","CLASSIFICATION_TYPE":"U","PERIAPSIS":"546.249","TLE_LINE2":"2 45414  53.0539  27.5958 0001337  73.0160 287.0976 15.06412727115946","OBJECT_NAME":"STARLINK-1309","MEAN_ELEMENT_THEORY":"SGP4","MEAN_MOTION_DDOT":"0.0000000000000","ELEMENT_SET_NO":"999","TIME_SYSTEM":"UTC","EPOCH":"2022-04-20T12:01:51.829248","TLE_LINE1":"1 45414U 20019BG  22110.50129432  .00002489  00000-0  18589-3 0  9999","APOAPSIS":"548.100","REF_FRAME":"TEME","DECAY_DATE":null,"MEAN_MOTION":"15.06412727","OBJECT_TYPE":"PAYLOAD","CENTER_NAME":"EARTH","LAUNCH_DATE":"2020-03-18","FILE":"3409639","PERIOD":"95.591","NORAD_CAT_ID":"45414","EPHEMERIS_TYPE":"0","BSTAR":"0.00018589000000","ECCENTRICITY":"0.00013370","GP_ID":"201679600","OBJECT_ID":"2020-019BG","SEMIMAJOR_AXIS":"6925.310","SITE":"AFETR","MEAN_MOTION_DOT":"0.00002489","RCS_SIZE":"LARGE","INCLINATION":"53.0539","RA_OF_ASC_NODE":"27.5958","MEAN_ANOMALY":"287.0976","ARG_OF_PERICENTER":"73.0160","REV_AT_EPOCH":"11594"},{"TLE_LINE2":"2 45415  53.0563  25.9927 0001201  83.4799 276.6327 15.06407127116038","OBJECT_NAME":"STARLINK-1316","COUNTRY_CODE":"US","PERIAPSIS":"546.360","CLASSIFICATION_TYPE":"U","MEAN_ELEMENT_THEORY":"SGP4","MEAN_MOTION_DDOT":"0.0000000000000","TIME_SYSTEM":"UTC","EPOCH":"2022-04-20T20:36:41.884704","ELEMENT_SET_NO":"999","TLE_LINE1":"1 45415U 20019BH  22110.85881811 -.00006679  00000-0 -42983-3 0  9996","DECAY_DATE":null,"REF_FRAME":"TEME","APOAPSIS":"548.023","MEAN_MOTION":"15.06407127","LAUNCH_DATE":"2020-03-18","CENTER_NAME":"EARTH","OBJECT_TYPE":"PAYLOAD","NORAD_CAT_ID":"45415","FILE":"3409979","PERIOD":"95.592","EPHEMERIS_TYPE":"0","BSTAR":"-0.00042983000000","ECCENTRICITY":"0.00012010","GP_ID":"201711741","RCS_SIZE":"LARGE","SITE":"AFETR","MEAN_MOTION_DOT":"-0.00006679","SEMIMAJOR_AXIS":"6925.327","OBJECT_ID":"2020-019BH","MEAN_ANOMALY":"276.6327","RA_OF_ASC_NODE":"25.9927","INCLINATION":"53.0563","REV_AT_EPOCH":"11603","ARG_OF_PERICENTER":"83.4799"},{"REV_AT_EPOCH":"11596","ARG_OF_PERICENTER":"78.2346","RA_OF_ASC_NODE":"27.6519","MEAN_ANOMALY":"281.8812","INCLINATION":"53.0545","SEMIMAJOR_AXIS":"6925.329","OBJECT_ID":"2020-019BJ","MEAN_MOTION_DOT":"0.00002272","SITE":"AFETR","RCS_SIZE":"LARGE","GP_ID":"201678599","ECCENTRICITY":"0.00015030","BSTAR":"0.00017133000000","EPHEMERIS_TYPE":"0","FILE":"3409639","PERIOD":"95.592","NORAD_CAT_ID":"45416","OBJECT_TYPE":"PAYLOAD","LAUNCH_DATE":"2020-03-18","CENTER_NAME":"EARTH","MEAN_MOTION":"15.06406519","DECAY_DATE":null,"REF_FRAME":"TEME","APOAPSIS":"548.234","TLE_LINE1":"1 45416U 20019BJ  22110.49392006  .00002272  00000-0  17133-3 0  9992","TIME_SYSTEM":"UTC","EPOCH":"2022-04-20T11:51:14.693184","ELEMENT_SET_NO":"999","MEAN_MOTION_DDOT":"0.0000000000000","MEAN_ELEMENT_THEORY":"SGP4","COUNTRY_CODE":"US","CLASSIFICATION_TYPE":"U","PERIAPSIS":"546.153","OBJECT_NAME":"STARLINK-1318","TLE_LINE2":"2 45416  53.0545  27.6519 0001503  78.2346 281.8812 15.06406519115962"},{"REV_AT_EPOCH":"11583","ARG_OF_PERICENTER":"77.6023","MEAN_ANOMALY":"282.5145","RA_OF_ASC_NODE":"57.3175","INCLINATION":"53.0543","MEAN_MOTION_DOT":"-0.00000860","SITE":"AFETR","RCS_SIZE":"LARGE","SEMIMAJOR_AXIS":"6925.363","OBJECT_ID":"2020-019BK","GP_ID":"201685916","ECCENTRICITY":"0.00016000","BSTAR":"-0.00003883600000","EPHEMERIS_TYPE":"0","NORAD_CAT_ID":"45417","FILE":"3409710","PERIOD":"95.592","LAUNCH_DATE":"2020-03-18","CENTER_NAME":"EARTH","OBJECT_TYPE":"PAYLOAD","MEAN_MOTION":"15.06395290","DECAY_DATE":null,"REF_FRAME":"TEME","APOAPSIS":"548.336","TLE_LINE1":"1 45417U 20019BK  22110.56487838 -.00000860  00000-0 -38836-4 0  9996","EPOCH":"2022-04-20T13:33:25.492032","TIME_SYSTEM":"UTC","ELEMENT_SET_NO":"999","MEAN_MOTION_DDOT":"0.0000000000000","MEAN_ELEMENT_THEORY":"SGP4","TLE_LINE2":"2 45417  53.0543  57.3175 0001600  77.6023 282.5145 15.06395290115838","OBJECT_NAME":"STARLINK-1286","COUNTRY_CODE":"US","PERIAPSIS":"546.120","CLASSIFICATION_TYPE":"U"},{"ECCENTRICITY":"0.00020750","BSTAR":"0.00113370000000","EPHEMERIS_TYPE":"0","FILE":"3409639","PERIOD":"95.735","NORAD_CAT_ID":"45418","REV_AT_EPOCH":"11523","ARG_OF_PERICENTER":"67.1611","MEAN_ANOMALY":"292.9595","RA_OF_ASC_NODE":"78.5775","INCLINATION":"53.0004","OBJECT_ID":"2020-019BL","SEMIMAJOR_AXIS":"6932.224","SITE":"AFETR","MEAN_MOTION_DOT":"0.00015661","RCS_SIZE":"LARGE","GP_ID":"201680100","TIME_SYSTEM":"UTC","EPOCH":"2022-04-20T14:26:16.470528","ELEMENT_SET_NO":"999","MEAN_MOTION_DDOT":"0.0000000000000","MEAN_ELEMENT_THEORY":"SGP4","CLASSIFICATION_TYPE":"U","COUNTRY_CODE":"US","PERIAPSIS":"552.651","OBJECT_NAME":"STARLINK-1299","TLE_LINE2":"2 45418  53.0004  78.5775 0002075  67.1611 292.9595 15.04159352115239","OBJECT_TYPE":"PAYLOAD","LAUNCH_DATE":"2020-03-18","CENTER_NAME":"EARTH","MEAN_MOTION":"15.04159352","DECAY_DATE":null,"APOAPSIS":"555.528","REF_FRAME":"TEME","TLE_LINE1":"1 45418U 20019BL  22110.60157952  .00015661  00000-0  11337-2 0  9991"},{"MEAN_ANOMALY":"294.3988","RA_OF_ASC_NODE":"57.3395","INCLINATION":"53.0565","REV_AT_EPOCH":"11557","ARG_OF_PERICENTER":"65.7176","GP_ID":"201678849","OBJECT_ID":"2020-019BM","SEMIMAJOR_AXIS":"6925.347","MEAN_MOTION_DOT":"-0.00000107","SITE":"AFETR","RCS_SIZE":"LARGE","BSTAR":"0.00001171400000","ECCENTRICITY":"0.00016830","PERIOD":"95.592","FILE":"3409639","NORAD_CAT_ID":"45419","EPHEMERIS_TYPE":"0","MEAN_MOTION":"15.06400527","OBJECT_TYPE":"PAYLOAD","LAUNCH_DATE":"2020-03-18","CENTER_NAME":"EARTH","TLE_LINE1":"1 45419U 20019BM  22110.56118675 -.00000107  00000-0  11714-4 0  9997","DECAY_DATE":null,"REF_FRAME":"TEME","APOAPSIS":"548.377","MEAN_MOTION_DDOT":"0.0000000000000","EPOCH":"2022-04-20T13:28:06.535200","TIME_SYSTEM":"UTC","ELEMENT_SET_NO":"999","PERIAPSIS":"546.046","COUNTRY_CODE":"US","CLASSIFICATION_TYPE":"U","TLE_LINE2":"2 45419  53.0565  57.3395 0001683  65.7176 294.3988 15.06400527115573","OBJECT_NAME":"STARLINK-1308","MEAN_ELEMENT_THEORY":"SGP4"}];
